TOMORROW-S2             
1 60485U 24149T   26068.75188364  .00008133  00000+0  27683-3 0  9990
2 60485  97.3857 150.0385 0001648 234.3331 125.7757 15.30674935 86869
STARLINK-34289          
1 64225U 25117Y   26068.35145750  .00018785  00000+0  64477-3 0  9996
2 64225  53.1597  41.1902 0001118  88.7771 271.3357 15.30200079 44505
